{"type":"FeatureCollection","name":"india-sikkim-state","crs":{"type":"name","properties":{"name":"urn:ogc:def:crs:OGC:1.3:CRS84"}},"features":[{"type":"Feature","properties":{"name":"Sikkim","country":"India","iso":"IND","source":"github.com/Subhash9325/GeoJson-Data-of-Indian-States (GADM)","note":"Sikkim state of India — northeastern Himalayan province"},"geometry":{"type":"Polygon","coordinates":[[[88.645256,28.099121],[88.654106,28.08984],[88.661102,28.079639],[88.666771,28.07408],[88.672806,28.07284],[88.673317,28.073071],[88.673637,28.073273],[88.67511,28.074202],[88.677116,28.077379],[88.685799,28.078979],[88.695221,28.076981],[88.697853,28.07737],[88.703888,28.078131],[88.71434,28.075691],[88.719437,28.07637],[88.729141,28.075281],[88.740349,28.075991],[88.748055,28.074066],[88.751083,28.073313],[88.753616,28.071939],[88.753639,28.071501],[88.756149,28.069712],[88.768036,28.061241],[88.768272,28.060631],[88.768806,28.060631],[88.769127,28.0604],[88.770752,28.05912],[88.770737,28.058661],[88.770767,28.058201],[88.773323,28.056862],[88.782288,28.05077],[88.782547,28.04962],[88.782806,28.048491],[88.783562,28.048033],[88.784317,28.047602],[88.785622,28.044241],[88.786636,28.04355],[88.786636,28.0431],[88.794716,28.037043],[88.794731,28.036598],[88.794983,28.03639],[88.796097,28.0359],[88.797493,28.03278],[88.797661,28.032471],[88.799431,28.03112],[88.799446,28.030691],[88.802269,28.028774],[88.805328,28.026701],[88.805328,28.026251],[88.805603,28.026091],[88.807869,28.02527],[88.816704,28.020981],[88.81926,28.019741],[88.820709,28.018978],[88.825348,28.017059],[88.829056,28.01516],[88.832901,28.011539],[88.834633,28.000408],[88.835648,27.999491],[88.835716,27.999121],[88.83625,27.998899],[88.83625,27.998213],[88.836777,27.996851],[88.839058,27.99506],[88.840881,27.991001],[88.840294,27.976803],[88.839813,27.965231],[88.839958,27.964109],[88.84301,27.961611],[88.84407,27.956423],[88.839729,27.952791],[88.836449,27.947359],[88.836418,27.94492],[88.83625,27.932001],[88.839546,27.93042],[88.841782,27.929831],[88.853531,27.926731],[88.854439,27.926489],[88.858948,27.92527],[88.861237,27.923462],[88.864807,27.913061],[88.866829,27.9091],[88.870232,27.90243],[88.87072,27.902439],[88.870743,27.901979],[88.871468,27.901819],[88.877251,27.897491],[88.879677,27.895679],[88.879662,27.89526],[88.880188,27.895241],[88.880463,27.89366],[88.880501,27.893209],[88.881012,27.893209],[88.881386,27.89253],[88.881363,27.88905],[88.880936,27.886383],[88.879967,27.88031],[88.880768,27.87014],[88.880898,27.869841],[88.881767,27.86787],[88.884567,27.865391],[88.885742,27.861338],[88.885643,27.859058],[88.885399,27.858917],[88.882973,27.857491],[88.882866,27.857031],[88.882095,27.855442],[88.882088,27.855309],[88.880997,27.838961],[88.880386,27.837601],[88.878967,27.837141],[88.877823,27.836241],[88.87709,27.833971],[88.876663,27.83338],[88.876236,27.83263],[88.875282,27.83107],[88.873032,27.827391],[88.868301,27.824541],[88.867523,27.8246],[88.86554,27.823681],[88.862343,27.821751],[88.855736,27.818123],[88.855377,27.817888],[88.854263,27.816523],[88.854126,27.814951],[88.854637,27.814741],[88.854767,27.813601],[88.85527,27.81245],[88.857323,27.81134],[88.857452,27.808163],[88.856827,27.79888],[88.852333,27.77832],[88.852608,27.768351],[88.854317,27.76037],[88.854576,27.759331],[88.855927,27.756941],[88.856949,27.75602],[88.857529,27.754591],[88.858528,27.753691],[88.859528,27.75301],[88.861366,27.748941],[88.862381,27.739],[88.861076,27.73583],[88.854286,27.730171],[88.853729,27.729145],[88.851517,27.724051],[88.850517,27.718201],[88.850006,27.717531],[88.841278,27.712063],[88.838882,27.711163],[88.838623,27.71047],[88.838638,27.70822],[88.839401,27.705721],[88.83989,27.705511],[88.840408,27.705278],[88.841179,27.70281],[88.845528,27.700312],[88.84552,27.694431],[88.84417,27.688923],[88.844498,27.685942],[88.845009,27.68162],[88.845261,27.6807],[88.845459,27.68008],[88.846733,27.675583],[88.846611,27.669041],[88.846611,27.6689],[88.845627,27.667238],[88.843109,27.662998],[88.83844,27.65871],[88.836792,27.65757],[88.834122,27.653322],[88.832237,27.65033],[88.826019,27.64547],[88.822327,27.642839],[88.820732,27.64229],[88.819817,27.641941],[88.815529,27.64267],[88.813751,27.64332],[88.813202,27.64352],[88.810677,27.64282],[88.809906,27.641918],[88.807137,27.636259],[88.806396,27.632191],[88.808243,27.619129],[88.808502,27.61433],[88.807976,27.61364],[88.805489,27.603251],[88.801956,27.59984],[88.800957,27.599611],[88.800987,27.59918],[88.800461,27.599173],[88.800461,27.598711],[88.797897,27.59646],[88.797409,27.59646],[88.797417,27.596003],[88.794571,27.594],[88.794067,27.594],[88.792809,27.59199],[88.791779,27.590611],[88.788536,27.58807],[88.78727,27.585571],[88.785576,27.576281],[88.784813,27.57538],[88.783684,27.57448],[88.78228,27.57336],[88.768478,27.567999],[88.768227,27.5679],[88.768227,27.567438],[88.767326,27.566772],[88.767067,27.56496],[88.767868,27.559971],[88.768402,27.55975],[88.768913,27.559523],[88.773117,27.54451],[88.775101,27.5376],[88.775543,27.537283],[88.77636,27.53672],[88.779137,27.53401],[88.779907,27.532652],[88.779877,27.532221],[88.784248,27.529518],[88.786018,27.52906],[88.787033,27.529301],[88.788063,27.52907],[88.788567,27.528601],[88.788948,27.526131],[88.788826,27.525011],[88.787689,27.52453],[88.786987,27.52084],[88.786667,27.519173],[88.786171,27.5151],[88.786133,27.51363],[88.786026,27.51149],[88.785172,27.50646],[88.783226,27.496481],[88.783333,27.49453],[88.784286,27.493731],[88.785011,27.492979],[88.785553,27.492418],[88.785431,27.487673],[88.78524,27.487253],[88.784744,27.486164],[88.783905,27.484327],[88.783157,27.4827],[88.782593,27.479584],[88.782318,27.478065],[88.781441,27.47319],[88.781441,27.472532],[88.781456,27.467758],[88.782166,27.463257],[88.783386,27.455551],[88.784286,27.453991],[88.787338,27.452421],[88.787369,27.4513],[88.787598,27.450171],[88.792435,27.448027],[88.794731,27.44701],[88.794594,27.44495],[88.794022,27.436609],[88.794907,27.43277],[88.795006,27.43265],[88.796532,27.43078],[88.800323,27.428701],[88.803169,27.427139],[88.80407,27.425331],[88.804077,27.425091],[88.806007,27.41424],[88.807121,27.4112],[88.80806,27.408642],[88.809326,27.40519],[88.810097,27.404758],[88.810097,27.404301],[88.811363,27.403181],[88.81176,27.403021],[88.81176,27.402561],[88.817451,27.400711],[88.819206,27.399323],[88.81926,27.399256],[88.819321,27.399183],[88.820839,27.397369],[88.821701,27.39572],[88.82238,27.394081],[88.825363,27.391439],[88.825363,27.390991],[88.825363,27.39056],[88.8312,27.38875],[88.832718,27.386511],[88.833168,27.386511],[88.833496,27.386511],[88.833488,27.386051],[88.834236,27.385839],[88.834442,27.384607],[88.834732,27.3829],[88.835518,27.382441],[88.83831,27.37883],[88.839828,27.378159],[88.841347,27.377701],[88.842346,27.377941],[88.844116,27.37908],[88.844513,27.37973],[88.847183,27.380859],[88.848297,27.382681],[88.848358,27.382769],[88.848953,27.3836],[88.852707,27.38633],[88.856537,27.38678],[88.858833,27.38587],[88.861633,27.383619],[88.862137,27.382509],[88.863136,27.38068],[88.864662,27.37977],[88.867218,27.36825],[88.868752,27.367361],[88.869423,27.367182],[88.870468,27.366886],[88.87915,27.364441],[88.87925,27.364374],[88.880989,27.36319],[88.883209,27.35766],[88.885063,27.346809],[88.885612,27.345509],[88.888611,27.338442],[88.889107,27.338221],[88.889862,27.336401],[88.893936,27.333941],[88.893951,27.333469],[88.895996,27.333052],[88.897148,27.333395],[88.900543,27.33441],[88.906937,27.330673],[88.907867,27.33013],[88.909164,27.330416],[88.911949,27.33103],[88.914162,27.3302],[88.915359,27.329634],[88.921761,27.326609],[88.922371,27.326321],[88.921631,27.32555],[88.918739,27.32255],[88.918427,27.32222],[88.914856,27.318661],[88.914238,27.317951],[88.913513,27.31636],[88.912506,27.30934],[88.909462,27.305943],[88.909157,27.301716],[88.909126,27.3016],[88.909103,27.300512],[88.909889,27.298271],[88.910393,27.298037],[88.910538,27.29306],[88.907272,27.283541],[88.906517,27.282412],[88.903763,27.278801],[88.90197,27.277239],[88.899208,27.274973],[88.897926,27.275192],[88.897621,27.275154],[88.897156,27.275097],[88.896149,27.274952],[88.894463,27.274014],[88.894241,27.273891],[88.892868,27.27313],[88.883293,27.269051],[88.879875,27.266104],[88.879349,27.2661],[88.877228,27.26292],[88.876717,27.26088],[88.873177,27.259062],[88.872414,27.258842],[88.863815,27.262215],[88.856216,27.261293],[88.847092,27.261721],[88.843819,27.26083],[88.843063,27.261269],[88.835197,27.263069],[88.830887,27.26236],[88.830406,27.2626],[88.830406,27.262131],[88.827126,27.260563],[88.824097,27.260099],[88.823189,27.258741],[88.822563,27.257618],[88.82003,27.25646],[88.820038,27.256001],[88.819969,27.255541],[88.818916,27.25499],[88.81221,27.252375],[88.810188,27.252167],[88.801102,27.24758],[88.800339,27.246237],[88.799606,27.23719],[88.799606,27.234701],[88.800117,27.23312],[88.80069,27.22068],[88.799232,27.215725],[88.795189,27.208469],[88.791916,27.204498],[88.791283,27.204271],[88.789642,27.2019],[88.789177,27.200081],[88.78891,27.1985],[88.7892,27.18992],[88.7882,27.185835],[88.78717,27.184246],[88.784676,27.18199],[88.77887,27.179951],[88.77684,27.179483],[88.774841,27.17971],[88.769928,27.1793],[88.768074,27.178904],[88.765984,27.178541],[88.761757,27.175879],[88.761383,27.175192],[88.760857,27.175192],[88.760887,27.174751],[88.760544,27.174473],[88.758896,27.172659],[88.758392,27.17197],[88.758301,27.168915],[88.758453,27.168015],[88.758949,27.167788],[88.760696,27.1581],[88.760483,27.157131],[88.759758,27.155018],[88.753853,27.15184],[88.751686,27.148211],[88.737183,27.139521],[88.732536,27.13735],[88.724541,27.138521],[88.717796,27.14397],[88.714966,27.15024],[88.711807,27.16515],[88.701973,27.17411],[88.691498,27.178699],[88.68441,27.180229],[88.680367,27.17951],[88.6735,27.176611],[88.668068,27.171989],[88.659599,27.16221],[88.656456,27.162401],[88.642487,27.167158],[88.638756,27.167721],[88.633278,27.17453],[88.619019,27.187853],[88.606789,27.189661],[88.603523,27.191153],[88.598106,27.191372],[88.597519,27.192711],[88.594002,27.191181],[88.591476,27.19446],[88.587021,27.190533],[88.585091,27.192833],[88.566292,27.18786],[88.55899,27.188751],[88.54084,27.18371],[88.528999,27.177761],[88.520752,27.178181],[88.520477,27.17503],[88.529808,27.165791],[88.526726,27.160273],[88.532028,27.154329],[88.52993,27.15015],[88.526741,27.149773],[88.521713,27.150343],[88.518707,27.1478],[88.515961,27.14374],[88.51223,27.141031],[88.507507,27.13599],[88.502953,27.13405],[88.498901,27.13122],[88.496407,27.128153],[88.495613,27.12536],[88.491852,27.12487],[88.486687,27.12678],[88.481277,27.12285],[88.473778,27.120701],[88.469078,27.117302],[88.466721,27.113941],[88.464798,27.104792],[88.460182,27.09585],[88.454498,27.089649],[88.446281,27.0854],[88.439621,27.084169],[88.431946,27.08161],[88.429146,27.08362],[88.411003,27.0907],[88.397659,27.094431],[88.38752,27.09841],[88.370651,27.099413],[88.363876,27.098421],[88.352303,27.10107],[88.347939,27.103321],[88.345161,27.106901],[88.340797,27.11067],[88.331741,27.108168],[88.323837,27.1049],[88.320076,27.107321],[88.320488,27.11664],[88.318817,27.119341],[88.311272,27.125351],[88.304497,27.128601],[88.299889,27.127998],[88.294907,27.124771],[88.278137,27.130831],[88.277351,27.131191],[88.270889,27.130131],[88.263458,27.127371],[88.251549,27.12536],[88.240067,27.120371],[88.232506,27.119768],[88.226906,27.121389],[88.221512,27.125271],[88.213837,27.135122],[88.209869,27.133402],[88.195618,27.13623],[88.188507,27.13442],[88.183678,27.135201],[88.178993,27.13471],[88.172607,27.13032],[88.15844,27.114351],[88.155441,27.112101],[88.152313,27.11171],[88.143776,27.117071],[88.136627,27.116879],[88.126907,27.123081],[88.123291,27.123791],[88.09594,27.135509],[88.092667,27.136278],[88.088638,27.13875],[88.085846,27.14151],[88.083832,27.14502],[88.082993,27.148939],[88.083908,27.16107],[88.08326,27.165043],[88.078697,27.167921],[88.073097,27.174417],[88.072327,27.17934],[88.069267,27.18495],[88.067451,27.190269],[88.068832,27.194351],[88.075409,27.198801],[88.074951,27.20084],[88.068237,27.204731],[88.064339,27.20783],[88.061737,27.2113],[88.058197,27.21389],[88.046761,27.21611],[88.032928,27.221031],[88.023987,27.220661],[88.016968,27.218872],[88.021492,27.22473],[88.021629,27.228886],[88.02182,27.235516],[88.021858,27.235546],[88.024315,27.237415],[88.024353,27.23741],[88.02742,27.236916],[88.027458,27.236908],[88.026848,27.241718],[88.02684,27.241756],[88.030319,27.249115],[88.033417,27.249716],[88.033386,27.251579],[88.033218,27.263016],[88.034416,27.265615],[88.032913,27.271715],[88.035614,27.281416],[88.034294,27.285995],[88.04071,27.291426],[88.040764,27.291435],[88.046509,27.292442],[88.04364,27.301126],[88.044113,27.304016],[88.047714,27.309856],[88.051117,27.312315],[88.052032,27.318447],[88.055199,27.324257],[88.055222,27.324301],[88.062698,27.328238],[88.062737,27.328257],[88.066116,27.334116],[88.069214,27.335581],[88.068855,27.336641],[88.067314,27.341015],[88.065636,27.342695],[88.064415,27.343916],[88.062439,27.349276],[88.060265,27.355341],[88.052818,27.358315],[88.044418,27.370716],[88.047615,27.379715],[88.046722,27.384296],[88.047318,27.389616],[88.048462,27.395481],[88.051094,27.400566],[88.051117,27.400616],[88.049431,27.405167],[88.049416,27.405216],[88.052193,27.406914],[88.053215,27.412615],[88.059418,27.418039],[88.059464,27.418045],[88.06076,27.418222],[88.06913,27.424614],[88.069717,27.425014],[88.082619,27.426414],[88.082886,27.429533],[88.08213,27.430578],[88.082115,27.430716],[88.081993,27.430769],[88.081268,27.431768],[88.075417,27.433615],[88.075256,27.433779],[88.070518,27.438515],[88.074104,27.443853],[88.075058,27.44519],[88.07502,27.445219],[88.069817,27.449316],[88.06897,27.45215],[88.068123,27.452736],[88.06971,27.457619],[88.063004,27.460848],[88.062744,27.461292],[88.059319,27.467215],[88.058731,27.467615],[88.053802,27.471537],[88.052513,27.471889],[88.046616,27.478415],[88.047806,27.481342],[88.0466,27.484709],[88.047203,27.492617],[88.047203,27.492659],[88.046333,27.495766],[88.049217,27.501215],[88.053429,27.504097],[88.057419,27.504314],[88.06012,27.509214],[88.064117,27.511816],[88.06002,27.516716],[88.064018,27.525116],[88.069839,27.526093],[88.067818,27.529316],[88.066132,27.529909],[88.062416,27.531216],[88.062057,27.532719],[88.061661,27.534634],[88.06163,27.534792],[88.063484,27.539726],[88.063507,27.539755],[88.067719,27.544516],[88.071205,27.546101],[88.071823,27.555546],[88.078621,27.558388],[88.078644,27.558416],[88.083618,27.564615],[88.082016,27.568098],[88.07782,27.571815],[88.087135,27.589001],[88.095413,27.597315],[88.108215,27.602316],[88.116318,27.61035],[88.116882,27.614038],[88.11792,27.620815],[88.122131,27.627029],[88.119919,27.629515],[88.123299,27.639174],[88.123291,27.639214],[88.122627,27.645267],[88.13382,27.655115],[88.139816,27.657215],[88.140266,27.657711],[88.147255,27.665403],[88.148224,27.671553],[88.149414,27.678816],[88.15033,27.681223],[88.15136,27.683796],[88.157448,27.690382],[88.157425,27.69042],[88.150992,27.70168],[88.150944,27.701669],[88.150917,27.701654],[88.150913,27.701661],[88.150711,27.702007],[88.151978,27.707905],[88.158119,27.717215],[88.157333,27.729116],[88.157333,27.729155],[88.161049,27.740618],[88.172318,27.741339],[88.172356,27.741341],[88.181213,27.746815],[88.179314,27.758116],[88.183411,27.761477],[88.183441,27.761503],[88.186012,27.766027],[88.186035,27.766066],[88.185242,27.76722],[88.184219,27.768816],[88.184235,27.769213],[88.184418,27.774515],[88.187897,27.777],[88.190727,27.781208],[88.19075,27.781237],[88.197945,27.786329],[88.199921,27.790529],[88.196495,27.796003],[88.19252,27.797915],[88.189514,27.801216],[88.187897,27.810307],[88.181526,27.815536],[88.179985,27.816029],[88.176117,27.817316],[88.17572,27.820215],[88.190132,27.825096],[88.19722,27.835516],[88.199387,27.836096],[88.203926,27.837315],[88.20401,27.842405],[88.200691,27.84551],[88.200165,27.847969],[88.198914,27.853516],[88.195526,27.854532],[88.19548,27.854523],[88.191017,27.853716],[88.187897,27.856537],[88.183426,27.856457],[88.180939,27.856413],[88.177055,27.86097],[88.175217,27.863123],[88.174622,27.863367],[88.169754,27.86536],[88.168564,27.866552],[88.166893,27.868217],[88.156624,27.870447],[88.156578,27.870457],[88.156349,27.870722],[88.151314,27.876514],[88.145615,27.878115],[88.141914,27.877415],[88.137543,27.881493],[88.129982,27.881516],[88.130203,27.88192],[88.129929,27.885939],[88.12738,27.891291],[88.126282,27.89509],[88.125763,27.895321],[88.125229,27.896439],[88.122948,27.897591],[88.122459,27.89883],[88.121651,27.90027],[88.119591,27.902071],[88.118797,27.90251],[88.117508,27.9056],[88.116753,27.906021],[88.1166,27.907181],[88.113892,27.912191],[88.113663,27.915838],[88.113579,27.91761],[88.116806,27.925781],[88.12587,27.934429],[88.128868,27.938299],[88.128952,27.93985],[88.128807,27.94553],[88.123703,27.947981],[88.123657,27.950241],[88.123909,27.95092],[88.129982,27.95594],[88.133087,27.961611],[88.134743,27.96298],[88.139061,27.96348],[88.139816,27.963261],[88.140007,27.963182],[88.146767,27.960514],[88.147202,27.960342],[88.153687,27.957781],[88.167229,27.948273],[88.173622,27.94471],[88.175667,27.944271],[88.182762,27.943562],[88.18866,27.94368],[88.192932,27.945452],[88.194763,27.946211],[88.195549,27.946918],[88.195763,27.947111],[88.197136,27.9505],[88.199226,27.95797],[88.199707,27.96048],[88.200287,27.961485],[88.202591,27.965481],[88.203491,27.96615],[88.203476,27.966619],[88.209808,27.967781],[88.211304,27.967159],[88.214119,27.96599],[88.215271,27.96557],[88.215843,27.965361],[88.216637,27.964968],[88.218018,27.96446],[88.221573,27.96402],[88.222336,27.96426],[88.223129,27.964478],[88.226151,27.96722],[88.229698,27.96792],[88.230186,27.967773],[88.230469,27.96769],[88.23098,27.96722],[88.232773,27.965879],[88.232971,27.964922],[88.235176,27.95414],[88.237473,27.952591],[88.237717,27.951469],[88.237732,27.95055],[88.238251,27.95035],[88.238258,27.94989],[88.243889,27.94854],[88.247932,27.950102],[88.248177,27.950195],[88.248245,27.950283],[88.248436,27.95083],[88.258827,27.95632],[88.260857,27.95657],[88.261627,27.956341],[88.265198,27.956591],[88.270523,27.958311],[88.271027,27.95808],[88.271233,27.958172],[88.271538,27.958311],[88.272049,27.958441],[88.274826,27.96051],[88.275612,27.961235],[88.276711,27.964361],[88.276817,27.965481],[88.279488,27.967321],[88.28006,27.967611],[88.28038,27.967781],[88.286072,27.968462],[88.290077,27.968941],[88.293861,27.968069],[88.304787,27.969961],[88.308891,27.972681],[88.310051,27.973989],[88.313919,27.978361],[88.316193,27.979721],[88.322906,27.981319],[88.323921,27.9811],[88.327499,27.98192],[88.329147,27.9825],[88.331833,27.984751],[88.332428,27.985901],[88.335022,27.98702],[88.337761,27.987989],[88.345192,27.989481],[88.350212,27.98963],[88.350983,27.989853],[88.35421,27.98942],[88.363762,27.98814],[88.374748,27.983671],[88.38166,27.97987],[88.38166,27.979408],[88.388802,27.97784],[88.389801,27.978081],[88.39402,27.979731],[88.396057,27.9811],[88.400719,27.983341],[88.402,27.983591],[88.404289,27.98674],[88.406563,27.9879],[88.408798,27.992441],[88.409943,27.993568],[88.411728,27.995621],[88.412331,27.996981],[88.4235,28.00563],[88.423477,28.006069],[88.424759,28.006531],[88.426537,28.00812],[88.427071,28.008329],[88.432587,28.010401],[88.450943,28.015011],[88.455856,28.017199],[88.461601,28.01981],[88.464622,28.023199],[88.469177,28.03286],[88.471657,28.03681],[88.477982,28.04258],[88.481857,28.04501],[88.483116,28.045588],[88.48967,28.048079],[88.501137,28.048931],[88.501671,28.048698],[88.501663,28.04825],[88.501678,28.047791],[88.50293,28.047131],[88.506996,28.04648],[88.516716,28.04402],[88.520836,28.041088],[88.521103,28.04018],[88.52108,28.03974],[88.522369,28.039051],[88.522362,28.038589],[88.527763,28.036821],[88.531548,28.036381],[88.53334,28.036619],[88.538017,28.038481],[88.538246,28.03857],[88.538948,28.038891],[88.540977,28.04048],[88.54274,28.044121],[88.542877,28.049683],[88.542931,28.050461],[88.543678,28.052521],[88.545052,28.053871],[88.550423,28.061121],[88.551773,28.06381],[88.552277,28.065401],[88.552467,28.07762],[88.554451,28.084831],[88.558281,28.087561],[88.566917,28.088982],[88.567749,28.088461],[88.570763,28.08651],[88.574837,28.085609],[88.576576,28.086281],[88.58551,28.090172],[88.587563,28.091301],[88.589081,28.091539],[88.59037,28.091318],[88.595169,28.095631],[88.596046,28.09693],[88.602791,28.09837],[88.605408,28.099661],[88.613449,28.10256],[88.616463,28.10368],[88.613579,28.10869],[88.61216,28.109932],[88.611557,28.11578],[88.610832,28.11874],[88.610466,28.119631],[88.606888,28.12281],[88.606728,28.126181],[88.607468,28.12755],[88.611816,28.12961],[88.621239,28.130968],[88.625237,28.128262],[88.626877,28.12715],[88.626877,28.12669],[88.626892,28.126261],[88.628952,28.124689],[88.6297,28.12447],[88.629707,28.12402],[88.630493,28.123798],[88.631737,28.121098],[88.632263,28.120861],[88.632767,28.12063],[88.635063,28.113062],[88.636391,28.108683],[88.637688,28.10437],[88.639359,28.103111],[88.641243,28.101721],[88.645256,28.099121]]]}}]}